{
  "type": "FeatureCollection",
  "features": [
    {
      "type": "Feature",
      "properties": {
        "norad_id": 28899,
        "name": "INMARSAT 4-F2 (SOUTHPAN/PRN 122)",
        "group": "gnss",
        "lat": 4.874863085816398,
        "lon": 130.27879216765209,
        "alt_km": 35793.57704402744,
        "timestamp": "2025-12-23T16:57:12.593030+00:00",
        "meta_object_name": "INMARSAT 4-F2 (SOUTHPAN/PRN 122)",
        "meta_object_id": "2005-044A",
        "meta_epoch": "2025-12-22T22:24:23.828832",
        "meta_mean_motion": 1.00275286,
        "meta_eccentricity": 0.00025844,
        "meta_inclination": 4.863,
        "meta_ra_of_asc_node": 43.707,
        "meta_arg_of_pericenter": 232.1898,
        "meta_mean_anomaly": 295.4415,
        "meta_ephemeris_type": 0,
        "meta_classification_type": "U",
        "meta_norad_cat_id": 28899,
        "meta_element_set_no": 999,
        "meta_rev_at_epoch": 7375,
        "meta_bstar": 0,
        "meta_mean_motion_dot": -2.41e-06,
        "meta_mean_motion_ddot": 0,
        "tle_line1": "1 28899U 05044A   25356.93360913 -.00000241  00000+0  00000+0 0  9990",
        "tle_line2": "2 28899   4.8630  43.7070 0002584 232.1898 295.4415  1.00275286 73755"
      },
      "geometry": {
        "type": "Point",
        "coordinates": [
          130.27879216765209,
          4.874863085816398
        ]
      }
    },
    {
      "type": "Feature",
      "properties": {
        "norad_id": 29486,
        "name": "GPS BIIRM-2 (PRN 31)",
        "group": "gnss",
        "lat": 21.194535492257376,
        "lon": -37.654492912177986,
        "alt_km": 20234.192850087467,
        "timestamp": "2025-12-23T16:57:12.593043+00:00",
        "meta_object_name": "GPS BIIRM-2 (PRN 31)",
        "meta_object_id": "2006-042A",
        "meta_epoch": "2025-12-21T12:25:39.335232",
        "meta_mean_motion": 2.00553827,
        "meta_eccentricity": 0.01073004,
        "meta_inclination": 54.6951,
        "meta_ra_of_asc_node": 158.3926,
        "meta_arg_of_pericenter": 52.1628,
        "meta_mean_anomaly": 320.0686,
        "meta_ephemeris_type": 0,
        "meta_classification_type": "U",
        "meta_norad_cat_id": 29486,
        "meta_element_set_no": 999,
        "meta_rev_at_epoch": 14083,
        "meta_bstar": 0,
        "meta_mean_motion_dot": 7.1e-07,
        "meta_mean_motion_ddot": 0,
        "tle_line1": "1 29486U 06042A   25355.51781638  .00000071  00000+0  00000+0 0  9996",
        "tle_line2": "2 29486  54.6951 158.3926 0107300  52.1628 320.0686  2.00553827140833"
      },
      "geometry": {
        "type": "Point",
        "coordinates": [
          -37.654492912177986,
          21.194535492257376
        ]
      }
    },
    {
      "type": "Feature",
      "properties": {
        "norad_id": 29601,
        "name": "GPS BIIRM-3 (PRN 12)",
        "group": "gnss",
        "lat": -25.455611262720293,
        "lon": 60.4806687587147,
        "alt_km": 20314.232644909294,
        "timestamp": "2025-12-23T16:57:12.593055+00:00",
        "meta_object_name": "GPS BIIRM-3 (PRN 12)",
        "meta_object_id": "2006-052A",
        "meta_epoch": "2025-12-22T22:00:58.169952",
        "meta_mean_motion": 2.00574295,
        "meta_eccentricity": 0.0087996,
        "meta_inclination": 54.9685,
        "meta_ra_of_asc_node": 220.9942,
        "meta_arg_of_pericenter": 87.562,
        "meta_mean_anomaly": 273.5353,
        "meta_ephemeris_type": 0,
        "meta_classification_type": "U",
        "meta_norad_cat_id": 29601,
        "meta_element_set_no": 999,
        "meta_rev_at_epoch": 13987,
        "meta_bstar": 0,
        "meta_mean_motion_dot": 6.8e-07,
        "meta_mean_motion_ddot": 0,
        "tle_line1": "1 29601U 06052A   25356.91733993  .00000068  00000+0  00000+0 0  9998",
        "tle_line2": "2 29601  54.9685 220.9942 0087996  87.5620 273.5353  2.00574295139872"
      },
      "geometry": {
        "type": "Point",
        "coordinates": [
          60.4806687587147,
          -25.455611262720293
        ]
      }
    },
    {
      "type": "Feature",
      "properties": {
        "norad_id": 32260,
        "name": "GPS BIIRM-4 (PRN 15)",
        "group": "gnss",
        "lat": -9.207369035302616,
        "lon": 80.54747269022846,
        "alt_km": 20227.37967102456,
        "timestamp": "2025-12-23T16:57:12.593068+00:00",
        "meta_object_name": "GPS BIIRM-4 (PRN 15)",
        "meta_object_id": "2007-047A",
        "meta_epoch": "2025-12-22T05:26:06.407520",
        "meta_mean_motion": 2.00564155,
        "meta_eccentricity": 0.0163987,
        "meta_inclination": 53.9614,
        "meta_ra_of_asc_node": 87.3666,
        "meta_arg_of_pericenter": 85.3577,
        "meta_mean_anomaly": 276.5274,
        "meta_ephemeris_type": 0,
        "meta_classification_type": "U",
        "meta_norad_cat_id": 32260,
        "meta_element_set_no": 999,
        "meta_rev_at_epoch": 13326,
        "meta_bstar": 0,
        "meta_mean_motion_dot": -1.3e-07,
        "meta_mean_motion_ddot": 0,
        "tle_line1": "1 32260U 07047A   25356.22646305 -.00000013  00000+0  00000+0 0  9993",
        "tle_line2": "2 32260  53.9614  87.3666 0163987  85.3577 276.5274  2.00564155133264"
      },
      "geometry": {
        "type": "Point",
        "coordinates": [
          80.54747269022846,
          -9.207369035302616
        ]
      }
    },
    {
      "type": "Feature",
      "properties": {
        "norad_id": 32275,
        "name": "COSMOS 2433 (720)",
        "group": "gnss",
        "lat": -40.11691964277624,
        "lon": 164.20716734236962,
        "alt_km": 19123.43723703396,
        "timestamp": "2025-12-23T16:57:12.593081+00:00",
        "meta_object_name": "COSMOS 2433 (720)",
        "meta_object_id": "2007-052A",
        "meta_epoch": "2025-12-22T00:07:36.568704",
        "meta_mean_motion": 2.13104226,
        "meta_eccentricity": 0.00051704,
        "meta_inclination": 65.6781,
        "meta_ra_of_asc_node": 321.8942,
        "meta_arg_of_pericenter": 255.846,
        "meta_mean_anomaly": 104.0915,
        "meta_ephemeris_type": 0,
        "meta_classification_type": "U",
        "meta_norad_cat_id": 32275,
        "meta_element_set_no": 999,
        "meta_rev_at_epoch": 14128,
        "meta_bstar": 0,
        "meta_mean_motion_dot": -4.2e-07,
        "meta_mean_motion_ddot": 0,
        "tle_line1": "1 32275U 07052A   25356.00528436 -.00000042  00000+0  00000+0 0  9997",
        "tle_line2": "2 32275  65.6781 321.8942 0005170 255.8460 104.0915  2.13104226141283"
      },
      "geometry": {
        "type": "Point",
        "coordinates": [
          164.20716734236962,
          -40.11691964277624
        ]
      }
    },
    {
      "type": "Feature",
      "properties": {
        "norad_id": 32276,
        "name": "COSMOS 2432 (719)",
        "group": "gnss",
        "lat": 9.653484888597772,
        "lon": 137.53939339911233,
        "alt_km": 19152.852903036455,
        "timestamp": "2025-12-23T16:57:12.593093+00:00",
        "meta_object_name": "COSMOS 2432 (719)",
        "meta_object_id": "2007-052B",
        "meta_epoch": "2025-12-23T06:07:11.644032",
        "meta_mean_motion": 2.13103423,
        "meta_eccentricity": 0.00113597,
        "meta_inclination": 65.6934,
        "meta_ra_of_asc_node": 321.9768,
        "meta_arg_of_pericenter": 314.4802,
        "meta_mean_anomaly": 228.6315,
        "meta_ephemeris_type": 0,
        "meta_classification_type": "U",
        "meta_norad_cat_id": 32276,
        "meta_element_set_no": 999,
        "meta_rev_at_epoch": 14133,
        "meta_bstar": 0,
        "meta_mean_motion_dot": -3.6e-07,
        "meta_mean_motion_ddot": 0,
        "tle_line1": "1 32276U 07052B   25357.25499588 -.00000036  00000+0  00000+0 0  9994",
        "tle_line2": "2 32276  65.6934 321.9768 0011359 314.4802 228.6315  2.13103423141330"
      },
      "geometry": {
        "type": "Point",
        "coordinates": [
          137.53939339911233,
          9.653484888597772
        ]
      }
    },
    {
      "type": "Feature",
      "properties": {
        "norad_id": 32384,
        "name": "GPS BIIRM-5 (PRN 29)",
        "group": "gnss",
        "lat": 45.36652062511382,
        "lon": 56.43853476657783,
        "alt_km": 20112.038323429664,
        "timestamp": "2025-12-23T16:57:12.593105+00:00",
        "meta_object_name": "GPS BIIRM-5 (PRN 29)",
        "meta_object_id": "2007-062A",
        "meta_epoch": "2025-12-19T04:08:10.010976",
        "meta_mean_motion": 2.00577702,
        "meta_eccentricity": 0.00322663,
        "meta_inclination": 55.1765,
        "meta_ra_of_asc_node": 281.388,
        "meta_arg_of_pericenter": 162.2119,
        "meta_mean_anomaly": 283.9132,
        "meta_ephemeris_type": 0,
        "meta_classification_type": "U",
        "meta_norad_cat_id": 32384,
        "meta_element_set_no": 999,
        "meta_rev_at_epoch": 13190,
        "meta_bstar": 0,
        "meta_mean_motion_dot": -3.8e-07,
        "meta_mean_motion_ddot": 0,
        "tle_line1": "1 32384U 07062A   25353.17233809 -.00000038  00000+0  00000+0 0  9996",
        "tle_line2": "2 32384  55.1765 281.3880 0032266 162.2119 283.9132  2.00577702131904"
      },
      "geometry": {
        "type": "Point",
        "coordinates": [
          56.43853476657783,
          45.36652062511382
        ]
      }
    }
  ]
}